[{"OBJECT_NAME":"ONEWEB-0602","OBJECT_ID":"2022-166AA","EPOCH":"2026-02-03T04:01:13.003968","MEAN_MOTION":13.21824887,"ECCENTRICITY":0.00013214,"INCLINATION":87.9196,"RA_OF_ASC_NODE":270.74,"ARG_OF_PERICENTER":73.1891,"MEAN_ANOMALY":286.9388,"EPHEMERIS_TYPE":0,"CLASSIFICATION_TYPE":"U","NORAD_CAT_ID":54666,"ELEMENT_SET_NO":999,"REV_AT_EPOCH":15384,"BSTAR":0.00020366677,"MEAN_MOTION_DOT":9.7e-7,"MEAN_MOTION_DDOT":0},{"OBJECT_NAME":"ONEWEB-0603","OBJECT_ID":"2022-166AB","EPOCH":"2026-02-03T04:09:30.527136","MEAN_MOTION":13.2182437,"ECCENTRICITY":0.00016041,"INCLINATION":87.9207,"RA_OF_ASC_NODE":270.6819,"ARG_OF_PERICENTER":76.9678,"MEAN_ANOMALY":283.1635,"EPHEMERIS_TYPE":0,"CLASSIFICATION_TYPE":"U","NORAD_CAT_ID":54667,"ELEMENT_SET_NO":999,"REV_AT_EPOCH":15377,"BSTAR":-3.480704e-6,"MEAN_MOTION_DOT":1.2e-7,"MEAN_MOTION_DDOT":0},{"OBJECT_NAME":"ONEWEB-0604","OBJECT_ID":"2022-166AC","EPOCH":"2026-02-03T03:52:55.396128","MEAN_MOTION":13.2182481,"ECCENTRICITY":0.00014969,"INCLINATION":87.9198,"RA_OF_ASC_NODE":270.7001,"ARG_OF_PERICENTER":84.4028,"MEAN_ANOMALY":275.7277,"EPHEMERIS_TYPE":0,"CLASSIFICATION_TYPE":"U","NORAD_CAT_ID":54668,"ELEMENT_SET_NO":999,"REV_AT_EPOCH":15373,"BSTAR":0.00013565873,"MEAN_MOTION_DOT":6.9e-7,"MEAN_MOTION_DDOT":0},{"OBJECT_NAME":"ONEWEB-0605","OBJECT_ID":"2022-166AD","EPOCH":"2026-02-03T03:43:27.925248","MEAN_MOTION":13.21825744,"ECCENTRICITY":0.00021203,"INCLINATION":87.9191,"RA_OF_ASC_NODE":270.7281,"ARG_OF_PERICENTER":74.3897,"MEAN_ANOMALY":285.7471,"EPHEMERIS_TYPE":0,"CLASSIFICATION_TYPE":"U","NORAD_CAT_ID":54669,"ELEMENT_SET_NO":999,"REV_AT_EPOCH":15380,"BSTAR":0.00015410093,"MEAN_MOTION_DOT":7.7e-7,"MEAN_MOTION_DDOT":0},{"OBJECT_NAME":"ONEWEB-0606","OBJECT_ID":"2022-166AE","EPOCH":"2026-02-03T04:14:14.466048","MEAN_MOTION":13.21828318,"ECCENTRICITY":0.00015472,"INCLINATION":87.9194,"RA_OF_ASC_NODE":270.736,"ARG_OF_PERICENTER":86.7931,"MEAN_ANOMALY":273.338,"EPHEMERIS_TYPE":0,"CLASSIFICATION_TYPE":"U","NORAD_CAT_ID":54670,"ELEMENT_SET_NO":999,"REV_AT_EPOCH":15386,"BSTAR":7.073097e-6,"MEAN_MOTION_DOT":1.6e-7,"MEAN_MOTION_DDOT":0},{"OBJECT_NAME":"ONEWEB-0607","OBJECT_ID":"2022-166AF","EPOCH":"2026-02-03T03:26:51.071424","MEAN_MOTION":13.21828258,"ECCENTRICITY":0.00015676,"INCLINATION":87.9195,"RA_OF_ASC_NODE":270.7061,"ARG_OF_PERICENTER":75.7509,"MEAN_ANOMALY":284.3799,"EPHEMERIS_TYPE":0,"CLASSIFICATION_TYPE":"U","NORAD_CAT_ID":54671,"ELEMENT_SET_NO":999,"REV_AT_EPOCH":15383,"BSTAR":0.00032339844,"MEAN_MOTION_DOT":1.47e-6,"MEAN_MOTION_DDOT":0},{"OBJECT_NAME":"ONEWEB-0608","OBJECT_ID":"2022-166AG","EPOCH":"2026-02-03T03:36:21.104928","MEAN_MOTION":13.21825483,"ECCENTRICITY":0.00019438,"INCLINATION":87.9202,"RA_OF_ASC_NODE":270.696,"ARG_OF_PERICENTER":70.0052,"MEAN_ANOMALY":290.1291,"EPHEMERIS_TYPE":0,"CLASSIFICATION_TYPE":"U","NORAD_CAT_ID":54672,"ELEMENT_SET_NO":999,"REV_AT_EPOCH":15384,"BSTAR":0.00021474638,"MEAN_MOTION_DOT":1.02e-6,"MEAN_MOTION_DDOT":0},{"OBJECT_NAME":"ONEWEB-0610","OBJECT_ID":"2022-166AH","EPOCH":"2026-02-03T04:56:55.114944","MEAN_MOTION":13.218256,"ECCENTRICITY":0.00019404,"INCLINATION":87.9191,"RA_OF_ASC_NODE":270.7131,"ARG_OF_PERICENTER":67.1827,"MEAN_ANOMALY":292.9512,"EPHEMERIS_TYPE":0,"CLASSIFICATION_TYPE":"U","NORAD_CAT_ID":54673,"ELEMENT_SET_NO":999,"REV_AT_EPOCH":15375,"BSTAR":0.0002631917,"MEAN_MOTION_DOT":1.22e-6,"MEAN_MOTION_DDOT":0},{"OBJECT_NAME":"ONEWEB-0611","OBJECT_ID":"2022-166AJ","EPOCH":"2026-02-03T04:47:25.258560","MEAN_MOTION":13.21825577,"ECCENTRICITY":0.00014189,"INCLINATION":87.9195,"RA_OF_ASC_NODE":270.711,"ARG_OF_PERICENTER":87.0029,"MEAN_ANOMALY":273.1267,"EPHEMERIS_TYPE":0,"CLASSIFICATION_TYPE":"U","NORAD_CAT_ID":54674,"ELEMENT_SET_NO":999,"REV_AT_EPOCH":15374,"BSTAR":-0.00050783867,"MEAN_MOTION_DOT":-1.97e-6,"MEAN_MOTION_DDOT":0},{"OBJECT_NAME":"ONEWEB-0612","OBJECT_ID":"2022-166AK","EPOCH":"2026-02-03T05:06:24.860736","MEAN_MOTION":13.21826929,"ECCENTRICITY":0.00016162,"INCLINATION":87.9198,"RA_OF_ASC_NODE":270.6892,"ARG_OF_PERICENTER":76.8489,"MEAN_ANOMALY":283.2825,"EPHEMERIS_TYPE":0,"CLASSIFICATION_TYPE":"U","NORAD_CAT_ID":54675,"ELEMENT_SET_NO":999,"REV_AT_EPOCH":15373,"BSTAR":0.00012756768,"MEAN_MOTION_DOT":6.6e-7,"MEAN_MOTION_DDOT":0},{"OBJECT_NAME":"ONEWEB-0615","OBJECT_ID":"2022-166AL","EPOCH":"2026-02-03T02:48:56.427264","MEAN_MOTION":13.21827707,"ECCENTRICITY":0.00015485,"INCLINATION":87.9195,"RA_OF_ASC_NODE":270.7346,"ARG_OF_PERICENTER":79.6965,"MEAN_ANOMALY":280.4344,"EPHEMERIS_TYPE":0,"CLASSIFICATION_TYPE":"U","NORAD_CAT_ID":54676,"ELEMENT_SET_NO":999,"REV_AT_EPOCH":15373,"BSTAR":0.00022624376,"MEAN_MOTION_DOT":1.06e-6,"MEAN_MOTION_DDOT":0},{"OBJECT_NAME":"ONEWEB-0655","OBJECT_ID":"2022-166AM","EPOCH":"2026-02-03T04:02:23.970336","MEAN_MOTION":13.21828015,"ECCENTRICITY":0.00014136,"INCLINATION":87.9191,"RA_OF_ASC_NODE":270.7268,"ARG_OF_PERICENTER":72.546,"MEAN_ANOMALY":287.5829,"EPHEMERIS_TYPE":0,"CLASSIFICATION_TYPE":"U","NORAD_CAT_ID":54677,"ELEMENT_SET_NO":999,"REV_AT_EPOCH":15373,"BSTAR":0.00017653164,"MEAN_MOTION_DOT":8.6e-7,"MEAN_MOTION_DDOT":0},{"OBJECT_NAME":"ONEWEB-0659","OBJECT_ID":"2022-166AN","EPOCH":"2026-02-03T04:26:05.614080","MEAN_MOTION":13.21825515,"ECCENTRICITY":0.00015814,"INCLINATION":87.9196,"RA_OF_ASC_NODE":270.7239,"ARG_OF_PERICENTER":87.7376,"MEAN_ANOMALY":272.3939,"EPHEMERIS_TYPE":0,"CLASSIFICATION_TYPE":"U","NORAD_CAT_ID":54678,"ELEMENT_SET_NO":999,"REV_AT_EPOCH":15382,"BSTAR":-0.00057882453,"MEAN_MOTION_DOT":-2.26e-6,"MEAN_MOTION_DDOT":0},{"OBJECT_NAME":"ONEWEB-0685","OBJECT_ID":"2022-166AP","EPOCH":"2026-02-02T13:53:56.071680","MEAN_MOTION":13.21966889,"ECCENTRICITY":8.95e-5,"INCLINATION":87.9196,"RA_OF_ASC_NODE":270.8409,"ARG_OF_PERICENTER":27.0562,"MEAN_ANOMALY":333.0618,"EPHEMERIS_TYPE":0,"CLASSIFICATION_TYPE":"U","NORAD_CAT_ID":54679,"ELEMENT_SET_NO":999,"REV_AT_EPOCH":15363,"BSTAR":0.039056547,"MEAN_MOTION_DOT":0.00016206,"MEAN_MOTION_DDOT":0},{"OBJECT_NAME":"ONEWEB-0712","OBJECT_ID":"2022-166AQ","EPOCH":"2026-02-03T07:19:43.095360","MEAN_MOTION":13.16595265,"ECCENTRICITY":0.00010387,"INCLINATION":87.9014,"RA_OF_ASC_NODE":255.4236,"ARG_OF_PERICENTER":72.3909,"MEAN_ANOMALY":287.7336,"EPHEMERIS_TYPE":0,"CLASSIFICATION_TYPE":"U","NORAD_CAT_ID":54680,"ELEMENT_SET_NO":999,"REV_AT_EPOCH":15444,"BSTAR":0.00025890172,"MEAN_MOTION_DOT":1.12e-6,"MEAN_MOTION_DDOT":0},{"OBJECT_NAME":"ONEWEB-0714","OBJECT_ID":"2022-166AR","EPOCH":"2026-02-03T04:35:34.536480","MEAN_MOTION":13.21824929,"ECCENTRICITY":0.00015071,"INCLINATION":87.9196,"RA_OF_ASC_NODE":270.7126,"ARG_OF_PERICENTER":73.899,"MEAN_ANOMALY":286.231,"EPHEMERIS_TYPE":0,"CLASSIFICATION_TYPE":"U","NORAD_CAT_ID":54681,"ELEMENT_SET_NO":999,"REV_AT_EPOCH":15383,"BSTAR":-7.7744282e-5,"MEAN_MOTION_DOT":-1.9e-7,"MEAN_MOTION_DDOT":0}]
