ONEWEB-0602             
1 54666U 22166AA  26034.16751162  .00000097  00000+0  20367-3 0  9994
2 54666  87.9196 270.7400 0001321  73.1891 286.9388 13.21824887153844
ONEWEB-0603             
1 54667U 22166AB  26034.17326999  .00000012  00000+0 -34807-5 0  9996
2 54667  87.9207 270.6819 0001604  76.9678 283.1635 13.21824370153772
ONEWEB-0604             
1 54668U 22166AC  26034.16175227  .00000069  00000+0  13566-3 0  9990
2 54668  87.9198 270.7001 0001496  84.4028 275.7277 13.21824810153732
ONEWEB-0605             
1 54669U 22166AD  26034.15518432  .00000077  00000+0  15410-3 0  9998
2 54669  87.9191 270.7281 0002120  74.3897 285.7471 13.21825744153805
ONEWEB-0606             
1 54670U 22166AE  26034.17655632  .00000016  00000+0  70731-5 0  9998
2 54670  87.9194 270.7360 0001547  86.7931 273.3380 13.21828318153864
ONEWEB-0607             
1 54671U 22166AF  26034.14364666  .00000147  00000+0  32340-3 0  9997
2 54671  87.9195 270.7061 0001567  75.7509 284.3799 13.21828258153831
ONEWEB-0608             
1 54672U 22166AG  26034.15024427  .00000102  00000+0  21475-3 0  9995
2 54672  87.9202 270.6960 0001943  70.0052 290.1291 13.21825483153847
ONEWEB-0610             
1 54673U 22166AH  26034.20619346  .00000122  00000+0  26319-3 0  9996
2 54673  87.9191 270.7131 0001940  67.1827 292.9512 13.21825600153757
ONEWEB-0611             
1 54674U 22166AJ  26034.19959790 -.00000197  00000+0 -50784-3 0  9992
2 54674  87.9195 270.7110 0001418  87.0029 273.1267 13.21825577153744
ONEWEB-0612             
1 54675U 22166AK  26034.21278774  .00000066  00000+0  12757-3 0  9993
2 54675  87.9198 270.6892 0001616  76.8489 283.2825 13.21826929153733
ONEWEB-0615             
1 54676U 22166AL  26034.11731976  .00000106  00000+0  22624-3 0  9990
2 54676  87.9195 270.7346 0001548  79.6965 280.4344 13.21827707153730
ONEWEB-0655             
1 54677U 22166AM  26034.16833299  .00000086  00000+0  17653-3 0  9990
2 54677  87.9191 270.7268 0001413  72.5460 287.5829 13.21828015153732
ONEWEB-0659             
1 54678U 22166AN  26034.18478720 -.00000226  00000+0 -57882-3 0  9993
2 54678  87.9196 270.7239 0001581  87.7376 272.3939 13.21825515153822
ONEWEB-0685             
1 54679U 22166AP  26033.57912120  .00016206  00000+0  39057-1 0  9998
2 54679  87.9196 270.8409 0000895  27.0562 333.0618 13.21966889153632
ONEWEB-0712             
1 54680U 22166AQ  26034.30535990  .00000112  00000+0  25890-3 0  9999
2 54680  87.9014 255.4236 0001038  72.3909 287.7336 13.16595265154440
ONEWEB-0714             
1 54681U 22166AR  26034.19137195 -.00000019  00000+0 -77744-4 0  9996
2 54681  87.9196 270.7126 0001507  73.8990 286.2310 13.21824929153833
